{"type": "FeatureCollection", "features": [ {"type": "Feature", "properties": {"norad_id": 66598, "name": "STARLINK-35981", "group": "last-30-days", "lat": -0.9518258681442193, "lon": -166.3988884636834, "alt_km": 414.9938453689665, "timestamp": "2025-12-12T09:49:07.481698+00:00", "meta": {"OBJECT_NAME": "STARLINK-35981", "OBJECT_ID": "2025-270L", "EPOCH": "2025-12-12T04:00:01.998720", "MEAN_MOTION": 15.5048266, "ECCENTRICITY": 0.0001684, "INCLINATION": 42.9998, "RA_OF_ASC_NODE": 196.0409, "ARG_OF_PERICENTER": 269.542, "MEAN_ANOMALY": 174.3325, "EPHEMERIS_TYPE": 0, "CLASSIFICATION_TYPE": "U", "NORAD_CAT_ID": 66598, "ELEMENT_SET_NO": 999, "REV_AT_EPOCH": 414, "BSTAR": 0.00196, "MEAN_MOTION_DOT": 0.00115964, "MEAN_MOTION_DDOT": 0}, "tle": {"line1": "1 66598U 25270L   25346.16668980  .00115964  00000+0  19600-2 0  9997", "line2": "2 66598  42.9998 196.0409 0001684 269.5420 174.3325 15.50482660  4144"}}, "geometry": {"type": "Point", "coordinates": [-166.3988884636834, -0.9518258681442193]}}, {"type": "Feature", "properties": {"norad_id": 66599, "name": "STARLINK-35930", "group": "last-30-days", "lat": 0.29281977700606593, "lon": -165.06709239178414, "alt_km": 414.4550627444787, "timestamp": "2025-12-12T09:49:07.481709+00:00", "meta": {"OBJECT_NAME": "STARLINK-35930", "OBJECT_ID": "2025-270M", "EPOCH": "2025-12-12T04:00:01.998720", "MEAN_MOTION": 15.50566991, "ECCENTRICITY": 5.04e-05, "INCLINATION": 42.9997, "RA_OF_ASC_NODE": 196.037, "ARG_OF_PERICENTER": 329.8662, "MEAN_ANOMALY": 115.7931, "EPHEMERIS_TYPE": 0, "CLASSIFICATION_TYPE": "U", "NORAD_CAT_ID": 66599, "ELEMENT_SET_NO": 999, "REV_AT_EPOCH": 430, "BSTAR": 0.00060909, "MEAN_MOTION_DOT": 0.00035537, "MEAN_MOTION_DDOT": 0}, "tle": {"line1": "1 66599U 25270M   25346.16668980  .00035537  00000+0  60909-3 0  9994", "line2": "2 66599  42.9997 196.0370 0000504 329.8662 115.7931 15.50566991  4309"}}, "geometry": {"type": "Point", "coordinates": [-165.06709239178414, 0.29281977700606593]}}, {"type": "Feature", "properties": {"norad_id": 66600, "name": "STARLINK-35980", "group": "last-30-days", "lat": 1.643783630670789, "lon": -163.62160375343606, "alt_km": 414.46626125073817, "timestamp": "2025-12-12T09:49:07.481721+00:00", "meta": {"OBJECT_NAME": "STARLINK-35980", "OBJECT_ID": "2025-270N", "EPOCH": "2025-12-12T04:00:01.998720", "MEAN_MOTION": 15.50542336, "ECCENTRICITY": 0.0002384, "INCLINATION": 42.9998, "RA_OF_ASC_NODE": 196.0319, "ARG_OF_PERICENTER": 276.9291, "MEAN_ANOMALY": 170.7081, "EPHEMERIS_TYPE": 0, "CLASSIFICATION_TYPE": "U", "NORAD_CAT_ID": 66600, "ELEMENT_SET_NO": 999, "REV_AT_EPOCH": 420, "BSTAR": 0.00070056, "MEAN_MOTION_DOT": 0.0004092, "MEAN_MOTION_DDOT": 0}, "tle": {"line1": "1 66600U 25270N   25346.16668980  .00040920  00000+0  70056-3 0  9993", "line2": "2 66600  42.9998 196.0319 0002384 276.9291 170.7081 15.50542336  4207"}}, "geometry": {"type": "Point", "coordinates": [-163.62160375343606, 1.643783630670789]}}, {"type": "Feature", "properties": {"norad_id": 66601, "name": "STARLINK-35978", "group": "last-30-days", "lat": 2.950583871955558, "lon": -162.22045129051796, "alt_km": 414.2349813484925, "timestamp": "2025-12-12T09:49:07.481731+00:00", "meta": {"OBJECT_NAME": "STARLINK-35978", "OBJECT_ID": "2025-270P", "EPOCH": "2025-12-12T04:00:01.998720", "MEAN_MOTION": 15.5053795, "ECCENTRICITY": 0.0001324, "INCLINATION": 42.9997, "RA_OF_ASC_NODE": 196.027, "ARG_OF_PERICENTER": 286.7778, "MEAN_ANOMALY": 162.7908, "EPHEMERIS_TYPE": 0, "CLASSIFICATION_TYPE": "U", "NORAD_CAT_ID": 66601, "ELEMENT_SET_NO": 999, "REV_AT_EPOCH": 414, "BSTAR": 0.0009599, "MEAN_MOTION_DOT": 0.00056294, "MEAN_MOTION_DDOT": 0}, "tle": {"line1": "1 66601U 25270P   25346.16668980  .00056294  00000+0  95990-3 0  9999", "line2": "2 66601  42.9997 196.0270 0001324 286.7778 162.7908 15.50537950  4143"}}, "geometry": {"type": "Point", "coordinates": [-162.22045129051796, 2.950583871955558]}}, {"type": "Feature", "properties": {"norad_id": 66602, "name": "STARLINK-36050", "group": "last-30-days", "lat": -0.12828036776247964, "lon": -165.51798664060712, "alt_km": 426.64695117077554, "timestamp": "2025-12-12T09:49:07.481756+00:00", "meta": {"OBJECT_NAME": "STARLINK-36050", "OBJECT_ID": "2025-270Q", "EPOCH": "2025-12-12T04:00:01.998720", "MEAN_MOTION": 15.47661129, "ECCENTRICITY": 0.0001651, "INCLINATION": 42.9997, "RA_OF_ASC_NODE": 196.0306, "ARG_OF_PERICENTER": 273.0406, "MEAN_ANOMALY": 175.0162, "EPHEMERIS_TYPE": 0, "CLASSIFICATION_TYPE": "U", "NORAD_CAT_ID": 66602, "ELEMENT_SET_NO": 999, "REV_AT_EPOCH": 420, "BSTAR": -0.043755, "MEAN_MOTION_DOT": -0.02059839, "MEAN_MOTION_DDOT": 0}, "tle": {"line1": "1 66602U 25270Q   25346.16668980 -.02059839  00000+0 -43755-1 0  9992", "line2": "2 66602  42.9997 196.0306 0001651 273.0406 175.0162 15.47661129  4202"}}, "geometry": {"type": "Point", "coordinates": [-165.51798664060712, -0.12828036776247964]}}, {"type": "Feature", "properties": {"norad_id": 66603, "name": "STARLINK-36048", "group": "last-30-days", "lat": 5.561924696887171, "lon": -159.40214726341205, "alt_km": 414.39848431165956, "timestamp": "2025-12-12T09:49:07.481768+00:00", "meta": {"OBJECT_NAME": "STARLINK-36048", "OBJECT_ID": "2025-270R", "EPOCH": "2025-12-12T04:00:01.998720", "MEAN_MOTION": 15.50480945, "ECCENTRICITY": 0.0001629, "INCLINATION": 42.9997, "RA_OF_ASC_NODE": 196.0175, "ARG_OF_PERICENTER": 265.6249, "MEAN_ANOMALY": 187.8225, "EPHEMERIS_TYPE": 0, "CLASSIFICATION_TYPE": "U", "NORAD_CAT_ID": 66603, "ELEMENT_SET_NO": 999, "REV_AT_EPOCH": 420, "BSTAR": 0.0017391, "MEAN_MOTION_DOT": 0.0010267, "MEAN_MOTION_DDOT": 0}, "tle": {"line1": "1 66603U 25270R   25346.16668980  .00102670  00000+0  17391-2 0  9999", "line2": "2 66603  42.9997 196.0175 0001629 265.6249 187.8225 15.50480945  4204"}}, "geometry": {"type": "Point", "coordinates": [-159.40214726341205, 5.561924696887171]}}, {"type": "Feature", "properties": {"norad_id": 66604, "name": "STARLINK-35977", "group": "last-30-days", "lat": 6.88413016084298, "lon": -157.9618077627538, "alt_km": 414.0963482064735, "timestamp": "2025-12-12T09:49:07.481779+00:00", "meta": {"OBJECT_NAME": "STARLINK-35977", "OBJECT_ID": "2025-270S", "EPOCH": "2025-12-12T04:00:01.998720", "MEAN_MOTION": 15.5047907, "ECCENTRICITY": 0.000144, "INCLINATION": 42.9997, "RA_OF_ASC_NODE": 196.012, "ARG_OF_PERICENTER": 273.5072, "MEAN_ANOMALY": 181.8965, "EPHEMERIS_TYPE": 0, "CLASSIFICATION_TYPE": "U", "NORAD_CAT_ID": 66604, "ELEMENT_SET_NO": 999, "REV_AT_EPOCH": 430, "BSTAR": 0.0016988, "MEAN_MOTION_DOT": 0.00100246, "MEAN_MOTION_DDOT": 0}, "tle": {"line1": "1 66604U 25270S   25346.16668980  .00100246  00000+0  16988-2 0  9998", "line2": "2 66604  42.9997 196.0120 0001440 273.5072 181.8965 15.50479070  4301"}}, "geometry": {"type": "Point", "coordinates": [-157.9618077627538, 6.88413016084298]}}, {"type": "Feature", "properties": {"norad_id": 66605, "name": "STARLINK-36052", "group": "last-30-days", "lat": 8.149193207596813, "lon": -156.57080660466175, "alt_km": 413.85353330831276, "timestamp": "2025-12-12T09:49:07.481789+00:00", "meta": {"OBJECT_NAME": "STARLINK-36052", "OBJECT_ID": "2025-270T", "EPOCH": "2025-12-12T04:00:01.998720", "MEAN_MOTION": 15.50552279, "ECCENTRICITY": 0.0002, "INCLINATION": 42.9996, "RA_OF_ASC_NODE": 196.0077, "ARG_OF_PERICENTER": 274.4045, "MEAN_ANOMALY": 182.8164, "EPHEMERIS_TYPE": 0, "CLASSIFICATION_TYPE": "U", "NORAD_CAT_ID": 66605, "ELEMENT_SET_NO": 999, "REV_AT_EPOCH": 430, "BSTAR": 0.00057939, "MEAN_MOTION_DOT": 0.00033764, "MEAN_MOTION_DDOT": 0}, "tle": {"line1": "1 66605U 25270T   25346.16668980  .00033764  00000+0  57939-3 0  9991", "line2": "2 66605  42.9996 196.0077 0002000 274.4045 182.8164 15.50552279  4300"}}, "geometry": {"type": "Point", "coordinates": [-156.57080660466175, 8.149193207596813]}}, {"type": "Feature", "properties": {"norad_id": 66606, "name": "STARLINK-36063", "group": "last-30-days", "lat": 10.707518996225986, "lon": -153.71265174224573, "alt_km": 413.750833292499, "timestamp": "2025-12-12T09:49:07.481800+00:00", "meta": {"OBJECT_NAME": "STARLINK-36063", "OBJECT_ID": "2025-270U", "EPOCH": "2025-12-12T04:00:01.998720", "MEAN_MOTION": 15.50500185, "ECCENTRICITY": 0.0001709, "INCLINATION": 42.9998, "RA_OF_ASC_NODE": 195.9979, "ARG_OF_PERICENTER": 265.0733, "MEAN_ANOMALY": 195.9935, "EPHEMERIS_TYPE": 0, "CLASSIFICATION_TYPE": "U", "NORAD_CAT_ID": 66606, "ELEMENT_SET_NO": 999, "REV_AT_EPOCH": 430, "BSTAR": 0.0019106, "MEAN_MOTION_DOT": 0.00113058, "MEAN_MOTION_DDOT": 0}, "tle": {"line1": "1 66606U 25270U   25346.16668980  .00113058  00000+0  19106-2 0  9990", "line2": "2 66606  42.9998 195.9979 0001709 265.0733 195.9935 15.50500185  4307"}}, "geometry": {"type": "Point", "coordinates": [-153.71265174224573, 10.707518996225986]}}, {"type": "Feature", "properties": {"norad_id": 66607, "name": "STARLINK-35993", "group": "last-30-days", "lat": 9.442558617322913, "lon": -155.1339788085509, "alt_km": 413.6987140691399, "timestamp": "2025-12-12T09:49:07.481813+00:00", "meta": {"OBJECT_NAME": "STARLINK-35993", "OBJECT_ID": "2025-270V", "EPOCH": "2025-12-12T04:00:01.998720", "MEAN_MOTION": 15.50557358, "ECCENTRICITY": 0.0001979, "INCLINATION": 42.9996, "RA_OF_ASC_NODE": 196.0032, "ARG_OF_PERICENTER": 275.2392, "MEAN_ANOMALY": 183.9042, "EPHEMERIS_TYPE": 0, "CLASSIFICATION_TYPE": "U", "NORAD_CAT_ID": 66607, "ELEMENT_SET_NO": 999, "REV_AT_EPOCH": 420, "BSTAR": 0.00029067, "MEAN_MOTION_DOT": 0.00016734, "MEAN_MOTION_DDOT": 0}, "tle": {"line1": "1 66607U 25270V   25346.16668980  .00016734  00000+0  29067-3 0  9992", "line2": "2 66607  42.9996 196.0032 0001979 275.2392 183.9042 15.50557358  4200"}}, "geometry": {"type": "Point", "coordinates": [-155.1339788085509, 9.442558617322913]}}]}